NORAD_CAT_ID,OBJECT_NAME,OBJECT_TYPE,EPOCH,MEAN_MOTION,ECCENTRICITY,INCLINATION,RA_OF_ASC_NODE,ARG_OF_PERICENTER,MEAN_ANOMALY,BSTAR,MEAN_MOTION_DOT,MEAN_MOTION_DDOT,TLE_LINE0,TLE_LINE1,TLE_LINE2,SEMIMAJOR_AXIS,PERIOD,APOGEE,PERIGEE,DECAYED
55667.0,STARLINK-5456,PAYLOAD,2024-02-16 00:30:20,14.98329754,0.0002963,69.9983,262.137,270.817,89.265,-5.5705e-06,-1.59e-06,0.0,0 STARLINK-5456,1 55667U 23021AR  24047.02107482 -.00000159  00000-0 -55705-5 0  9992,2 55667  69.9983 262.1370 0002963 270.8170  89.2650 14.98329754 56240,6950.194,96.107,574.118,569.999,0.0
55667.0,STARLINK-5456,PAYLOAD,2024-02-16 14:55:33,14.98333384,0.0003008,69.9981,260.6221,270.0871,89.9943,3.8564e-05,3.67e-06,0.0,0 STARLINK-5456,1 55667U 23021AR  24047.62191053  .00000367  00000-0  38564-4 0  9997,2 55667  69.9981 260.6221 0003008 270.0871  89.9943 14.98333384 56636,6950.182,96.107,574.138,569.957,0.0
55667.0,STARLINK-5456,PAYLOAD,2024-02-16 21:20:05,14.98334471,0.0003001,69.998,259.9488,270.0515,90.03,4.5631e-05,4.52e-06,0.0,0 STARLINK-5456,1 55667U 23021AR  24047.88894901  .00000452  00000-0  45631-4 0  9995,2 55667  69.9980 259.9488 0003001 270.0515  90.0300 14.98334471 56671,6950.179,96.107,574.13,569.958,0.0
55667.0,STARLINK-5456,PAYLOAD,2024-02-17 00:32:21,14.9833498,0.0002999,69.998,259.6121,270.1817,89.8998,4.9773e-05,5.01e-06,0.0,0 STARLINK-5456,1 55667U 23021AR  24048.02246817  .00000501  00000-0  49773-4 0  9995,2 55667  69.9980 259.6121 0002999 270.1817  89.8998 14.98334980 56396,6950.177,96.107,574.127,569.958,0.0
55667.0,STARLINK-5456,PAYLOAD,2024-02-17 14:57:34,14.98327522,0.0002963,69.998,258.0971,270.2253,89.8567,-4.7593e-06,-1.5e-06,0.0,0 STARLINK-5456,1 55667U 23021AR  24048.62331365 -.00000150  00000-0 -47593-5 0  9995,2 55667  69.9980 258.0971 0002963 270.2253  89.8567 14.98327522 56787,6950.201,96.107,574.125,570.006,0.0
55667.0,STARLINK-5456,PAYLOAD,2024-02-17 19:45:58,14.98327734,0.0002969,69.998,257.5922,269.9579,90.124,-3.263e-06,-1.32e-06,0.0,0 STARLINK-5456,1 55667U 23021AR  24048.82359360 -.00000132  00000-0 -32630-5 0  9998,2 55667  69.9980 257.5922 0002969 269.9579  90.1240 14.98327734 56518,6950.2,96.107,574.128,570.001,0.0
55667.0,STARLINK-5456,PAYLOAD,2024-02-17 21:22:06,14.98328118,0.0002963,69.998,257.4238,270.2312,89.8507,1.1658e-06,-7.9e-07,0.0,0 STARLINK-5456,1 55667U 23021AR  24048.89035329 -.00000079  00000-0  11658-5 0  9997,2 55667  69.9980 257.4238 0002963 270.2312  89.8507 14.98328118 56823,6950.199,96.107,574.123,570.004,0.0
55667.0,STARLINK-5456,PAYLOAD,2024-02-18 14:59:35,14.98331756,0.0002906,69.9981,255.5719,268.7816,91.301,-2.2095e-05,-3.57e-06,0.0,0 STARLINK-5456,1 55667U 23021AR  24049.62471167 -.00000357  00000-0 -22095-4 0  9999,2 55667  69.9981 255.5719 0002906 268.7816  91.3010 14.98331756 56936,6950.187,96.107,574.072,570.033,0.0
55667.0,STARLINK-5456,PAYLOAD,2024-02-18 19:47:59,14.98331618,0.0002917,69.998,255.0668,268.8523,91.2302,-2.4565e-05,-3.86e-06,0.0,0 STARLINK-5456,1 55667U 23021AR  24049.82499157 -.00000386  00000-0 -24565-4 0  9996,2 55667  69.9980 255.0668 0002917 268.8523  91.2302 14.98331618 56661,6950.188,96.107,574.08,570.026,0.0
55667.0,STARLINK-5456,PAYLOAD,2024-02-18 23:00:15,14.98331436,0.0002914,69.9979,254.7301,269.0031,91.0794,-2.4648e-05,-3.87e-06,0.0,0 STARLINK-5456,1 55667U 23021AR  24049.95851155 -.00000387  00000-0 -24648-4 0  9993,2 55667  69.9979 254.7301 0002914 269.0031  91.0794 14.98331436 56989,6950.188,96.107,574.079,570.028,0.0
55667.0,STARLINK-5456,PAYLOAD,2024-02-19 15:01:36,14.9832607,0.0002993,69.9975,253.0464,269.682,90.3996,1.3964e-05,7.4e-07,0.0,0 STARLINK-5456,1 55667U 23021AR  24050.62611384  .00000074  00000-0  13964-4 0  9997,2 55667  69.9975 253.0464 0002993 269.6820  90.3996 14.98326070 57082,6950.205,96.107,574.15,569.99,0.0
55667.0,STARLINK-5456,PAYLOAD,2024-02-19 19:50:00,14.98326969,0.000301,69.9976,252.5413,269.5551,90.5263,5.8936e-06,-2.3e-07,0.0,0 STARLINK-5456,1 55667U 23021AR  24050.82639385 -.00000023  00000-0  58936-5 0  9994,2 55667  69.9976 252.5413 0003010 269.5551  90.5263 14.98326969 56818,6950.202,96.107,574.159,569.975,0.0
55667.0,STARLINK-5456,PAYLOAD,2024-02-19 23:02:16,14.98327167,0.0003009,69.9977,252.2046,269.6349,90.4465,7.3989e-06,-5e-08,0.0,0 STARLINK-5456,1 55667U 23021AR  24050.95991381 -.00000005  00000-0  73989-5 0  9990,2 55667  69.9977 252.2046 0003009 269.6349  90.4465 14.98327167 57132,6950.202,96.107,574.158,569.975,0.0
55667.0,STARLINK-5456,PAYLOAD,2024-02-20 15:03:36,14.98330771,0.000302,69.9976,250.5212,269.8596,90.2217,4.4404e-05,4.37e-06,0.0,0 STARLINK-5456,1 55667U 23021AR  24051.62751083  .00000437  00000-0  44404-4 0  9995,2 55667  69.9976 250.5212 0003020 269.8596  90.2217 14.98330771 57235,6950.191,96.107,574.154,569.957,0.0
55667.0,STARLINK-5456,PAYLOAD,2024-02-20 19:52:01,14.98332335,0.0003032,69.9977,250.0161,269.7688,90.3123,3.1243e-05,2.8e-06,0.0,0 STARLINK-5456,1 55667U 23021AR  24051.82779002  .00000280  00000-0  31243-4 0  9991,2 55667  69.9977 250.0161 0003032 269.7688  90.3123 14.98332335 56962,6950.186,96.107,574.158,569.943,0.0
55667.0,STARLINK-5456,PAYLOAD,2024-02-20 23:04:17,14.9833249,0.000303,69.9977,249.6794,269.8552,90.226,3.2182e-05,2.91e-06,0.0,0 STARLINK-5456,1 55667U 23021AR  24051.96130967  .00000291  00000-0  32182-4 0  9992,2 55667  69.9977 249.6794 0003030 269.8552  90.2260 14.98332490 57286,6950.185,96.107,574.156,569.944,0.0
55667.0,STARLINK-5456,PAYLOAD,2024-02-21 13:29:29,14.98330408,0.0003029,69.9978,248.1644,269.8967,90.1845,4.6941e-05,4.67e-06,0.0,0 STARLINK-5456,1 55667U 23021AR  24052.56214980  .00000467  00000-0  46941-4 0  9990,2 55667  69.9978 248.1644 0003029 269.8967  90.1845 14.98330408 57378,6950.192,96.107,574.162,569.951,0.0
55667.0,STARLINK-5456,PAYLOAD,2024-02-21 19:54:01,14.98330961,0.0003048,69.9981,247.4912,269.9507,90.1302,3.174e-05,2.86e-06,0.0,0 STARLINK-5456,1 55667U 23021AR  24052.82918968  .00000286  00000-0  31740-4 0  9996,2 55667  69.9981 247.4912 0003048 269.9507  90.1302 14.98330961 57118,6950.19,96.107,574.173,569.937,0.0
55667.0,STARLINK-5456,PAYLOAD,2024-02-21 21:30:10,14.98331227,0.0003045,69.9981,247.3228,270.0024,90.0786,3.3729e-05,3.09e-06,0.0,0 STARLINK-5456,1 55667U 23021AR  24052.89594937  .00000309  00000-0  33729-4 0  9994,2 55667  69.9981 247.3228 0003045 270.0024  90.0786 14.98331227 57426,6950.189,96.107,574.17,569.938,0.0
55667.0,STARLINK-5456,PAYLOAD,2024-02-22 13:31:30,14.9833221,0.0002994,69.9983,245.6396,270.1263,89.9553,-1.096e-05,-2.24e-06,0.0,0 STARLINK-5456,1 55667U 23021AR  24053.56354931 -.00000224  00000-0 -10960-4 0  9997,2 55667  69.9983 245.6396 0002994 270.1263  89.9553 14.98332210 57526,6950.186,96.107,574.132,569.97,0.0
55667.0,STARLINK-5456,PAYLOAD,2024-02-22 19:56:02,14.98332491,0.000298,69.9985,244.9664,269.7292,90.3525,-5.6858e-06,-1.61e-06,0.0,0 STARLINK-5456,1 55667U 23021AR  24053.83058846 -.00000161  00000-0 -56858-5 0  9990,2 55667  69.9985 244.9664 0002980 269.7292  90.3525 14.98332491 57266,6950.185,96.107,574.121,569.979,0.0
55667.0,STARLINK-5456,PAYLOAD,2024-02-22 21:32:10,14.98332366,0.0002979,69.9985,244.7981,269.7566,90.3252,-7.0465e-06,-1.77e-06,0.0,0 STARLINK-5456,1 55667U 23021AR  24053.89734842 -.00000177  00000-0 -70465-5 0  9990,2 55667  69.9985 244.7981 0002979 269.7566  90.3252 14.98332366 57570,6950.186,96.107,574.121,569.98,0.0
55667.0,STARLINK-5456,PAYLOAD,2024-02-23 13:33:31,14.98332468,0.0002982,69.9987,243.1148,269.956,90.1257,1.3724e-05,7.1e-07,0.0,0 STARLINK-5456,1 55667U 23021AR  24054.56494659  .00000071  00000-0  13724-4 0  9999,2 55667  69.9987 243.1148 0002982 269.9560  90.1257 14.98332468 57677,6950.185,96.107,574.123,569.978,0.0
55667.0,STARLINK-5456,PAYLOAD,2024-02-23 19:58:03,14.98332746,0.0002989,69.9988,242.4415,270.2019,89.8798,1.6148e-05,1e-06,0.0,0 STARLINK-5456,1 55667U 23021AR  24054.83198584  .00000100  00000-0  16148-4 0  9993,2 55667  69.9988 242.4415 0002989 270.2019  89.8798 14.98332746 57414,6950.184,96.107,574.127,569.972,0.0
55667.0,STARLINK-5456,PAYLOAD,2024-02-23 21:34:11,14.98332715,0.0002988,69.9988,242.2731,270.2184,89.8632,1.5376e-05,9e-07,0.0,0 STARLINK-5456,1 55667U 23021AR  24054.89874571  .00000090  00000-0  15376-4 0  9996,2 55667  69.9988 242.2731 0002988 270.2184  89.8632 14.98332715 57722,6950.184,96.107,574.126,569.973,0.0
55667.0,STARLINK-5456,PAYLOAD,2024-02-24 13:35:32,14.98330268,0.0002932,69.9989,240.5898,269.001,91.0813,-4.8036e-06,-1.5e-06,0.0,0 STARLINK-5456,1 55667U 23021AR  24055.56634711 -.00000150  00000-0 -48036-5 0  9990,2 55667  69.9989 240.5898 0002932 269.0010  91.0813 14.98330268 57829,6950.192,96.107,574.095,570.019,0.0
55667.0,STARLINK-5456,PAYLOAD,2024-02-24 18:23:56,14.98330092,0.0002941,69.9989,240.0847,268.9691,91.1132,-7.4658e-06,-1.82e-06,0.0,0 STARLINK-5456,1 55667U 23021AR  24055.76662716 -.00000182  00000-0 -74658-5 0  9992,2 55667  69.9989 240.0847 0002941 268.9691  91.1132 14.98330092 57854,6950.193,96.107,574.102,570.014,0.0
55667.0,STARLINK-5456,PAYLOAD,2024-02-25 05:36:53,14.98328963,0.000296,69.999,238.9063,269.4341,90.6478,-9.9501e-06,-2.12e-06,0.0,0 STARLINK-5456,1 55667U 23021AR  24056.23394774 -.00000212  00000-0 -99501-5 0  9999,2 55667  69.9990 238.9063 0002960 269.4341  90.6478 14.98328963 57627,6950.196,96.107,574.118,570.004,0.0
55667.0,STARLINK-5456,PAYLOAD,2024-02-25 13:37:33,14.98330448,0.0002975,69.999,238.0642,268.5936,91.4883,7.9162e-07,-8.4e-07,0.0,0 STARLINK-5456,1 55667U 23021AR  24056.56774622 -.00000084  00000-0  79162-6 0  9997,2 55667  69.9990 238.0642 0002975 268.5936  91.4883 14.98330448 57975,6950.192,96.107,574.124,569.989,0.0
55667.0,STARLINK-5456,PAYLOAD,2024-02-25 21:38:13,14.98331613,0.0002996,69.999,237.2224,268.3871,91.6945,-8.828e-07,-1.04e-06,0.0,0 STARLINK-5456,1 55667U 23021AR  24056.90154519 -.00000104  00000-0 -88280-6 0  9997,2 55667  69.9990 237.2224 0002996 268.3871  91.6945 14.98331613 58024,6950.188,96.107,574.135,569.971,0.0
